[
    {
        "Altitude(m)": 559025.4692608145,
        "Argument of Periapsis(deg)": 0.033114955553567506,
        "Eccentricity": 0.0,
        "Inclination(deg)": 53.0,
        "Latitude(deg)": 49.3121689645454,
        "Longitude(deg)": 150.3595993186248,
        "Mean Anomaly(deg)": 108.63986433788794,
        "RAAN(deg)": 134.95071684264008,
        "Satellite Name": "Starlink Shell 1 597",
        "Satellite Number": 597,
        "Semi-Major Axis(m)": 6931778.249405717,
        "Time(s)": 950
    },
    {
        "Altitude(m)": 558968.5141451745,
        "Argument of Periapsis(deg)": 0.03346353403307874,
        "Eccentricity": 0.0,
        "Inclination(deg)": 53.0,
        "Latitude(deg)": 49.06324216192259,
        "Longitude(deg)": 151.1964220887499,
        "Mean Anomaly(deg)": 109.26669554144466,
        "RAAN(deg)": 134.9501980725626,
        "Satellite Name": "Starlink Shell 1 597",
        "Satellite Number": 597,
        "Semi-Major Axis(m)": 6931778.249405717,
        "Time(s)": 960
    },
    {
        "Altitude(m)": 558910.0550049404,
        "Argument of Periapsis(deg)": 0.03381211251258998,
        "Eccentricity": 0.0,
        "Inclination(deg)": 53.0,
        "Latitude(deg)": 48.8076929611702,
        "Longitude(deg)": 152.02440908233123,
        "Mean Anomaly(deg)": 109.89352674500137,
        "RAAN(deg)": 134.94967930248512,
        "Satellite Name": "Starlink Shell 1 597",
        "Satellite Number": 597,
        "Semi-Major Axis(m)": 6931778.249405717,
        "Time(s)": 970
    },
    {
        "Altitude(m)": 558850.1276203516,
        "Argument of Periapsis(deg)": 0.034160690992101214,
        "Eccentricity": 0.0,
        "Inclination(deg)": 53.0,
        "Latitude(deg)": 48.54564600775175,
        "Longitude(deg)": 152.84350306948448,
        "Mean Anomaly(deg)": 110.52035794855807,
        "RAAN(deg)": 134.94916053240766,
        "Satellite Name": "Starlink Shell 1 597",
        "Satellite Number": 597,
        "Semi-Major Axis(m)": 6931778.249405717,
        "Time(s)": 980
    },
    {
        "Altitude(m)": 558788.7687180381,
        "Argument of Periapsis(deg)": 0.034509269471612446,
        "Eccentricity": 0.0,
        "Inclination(deg)": 53.0,
        "Latitude(deg)": 48.2772259865293,
        "Longitude(deg)": 153.65366033114526,
        "Mean Anomaly(deg)": 111.1471891521148,
        "RAAN(deg)": 134.9486417623302,
        "Satellite Name": "Starlink Shell 1 597",
        "Satellite Number": 597,
        "Semi-Major Axis(m)": 6931778.249405717,
        "Time(s)": 990
    }
]